{"type": "FeatureCollection", "features": [ {"type": "Feature", "properties": {"norad_id": 32384, "name": "GPS BIIRM-5 (PRN 29)", "group": "gps-ops", "lat": 55.19631929037575, "lon": 10.917428126587794, "alt_km": 20148.484385854463, "timestamp": "2025-12-22T04:03:39.427985+00:00", "meta": {"OBJECT_NAME": "GPS BIIRM-5 (PRN 29)", "OBJECT_ID": "2007-062A", "EPOCH": "2025-12-19T04:08:10.010976", "MEAN_MOTION": 2.00577702, "ECCENTRICITY": 0.00322663, "INCLINATION": 55.1765, "RA_OF_ASC_NODE": 281.388, "ARG_OF_PERICENTER": 162.2119, "MEAN_ANOMALY": 283.9132, "EPHEMERIS_TYPE": 0, "CLASSIFICATION_TYPE": "U", "NORAD_CAT_ID": 32384, "ELEMENT_SET_NO": 999, "REV_AT_EPOCH": 13190, "BSTAR": 0, "MEAN_MOTION_DOT": -3.8e-07, "MEAN_MOTION_DDOT": 0}, "tle": {"line1": "1 32384U 07062A   25353.17233809 -.00000038  00000+0  00000+0 0  9996", "line2": "2 32384  55.1765 281.3880 0032266 162.2119 283.9132  2.00577702131904"}}, "geometry": {"type": "Point", "coordinates": [10.917428126587794, 55.19631929037575]}}, {"type": "Feature", "properties": {"norad_id": 32711, "name": "GPS BIIRM-6 (PRN 07)", "group": "gps-ops", "lat": 12.926644679181463, "lon": 166.42492736670616, "alt_km": 20526.51551675231, "timestamp": "2025-12-22T04:03:39.427997+00:00", "meta": {"OBJECT_NAME": "GPS BIIRM-6 (PRN 07)", "OBJECT_ID": "2008-012A", "EPOCH": "2025-12-19T15:41:26.858112", "MEAN_MOTION": 2.00565937, "ECCENTRICITY": 0.0202735, "INCLINATION": 54.4779, "RA_OF_ASC_NODE": 157.0969, "ARG_OF_PERICENTER": 245.0276, "MEAN_ANOMALY": 112.8468, "EPHEMERIS_TYPE": 0, "CLASSIFICATION_TYPE": "U", "NORAD_CAT_ID": 32711, "ELEMENT_SET_NO": 999, "REV_AT_EPOCH": 13015, "BSTAR": 0, "MEAN_MOTION_DOT": 6.7e-07, "MEAN_MOTION_DDOT": 0}, "tle": {"line1": "1 32711U 08012A   25353.65378308  .00000067  00000+0  00000+0 0  9994", "line2": "2 32711  54.4779 157.0969 0202735 245.0276 112.8468  2.00565937130151"}}, "geometry": {"type": "Point", "coordinates": [166.42492736670616, 12.926644679181463]}}, {"type": "Feature", "properties": {"norad_id": 35752, "name": "GPS BIIRM-8 (PRN 05)", "group": "gps-ops", "lat": 27.31629715729389, "lon": 54.744544572874595, "alt_km": 20086.713688164225, "timestamp": "2025-12-22T04:03:39.428009+00:00", "meta": {"OBJECT_NAME": "GPS BIIRM-8 (PRN 05)", "OBJECT_ID": "2009-043A", "EPOCH": "2025-12-20T02:09:52.509312", "MEAN_MOTION": 2.00565329, "ECCENTRICITY": 0.00516467, "INCLINATION": 56.096, "RA_OF_ASC_NODE": 34.4932, "ARG_OF_PERICENTER": 81.7821, "MEAN_ANOMALY": 251.1308, "EPHEMERIS_TYPE": 0, "CLASSIFICATION_TYPE": "U", "NORAD_CAT_ID": 35752, "ELEMENT_SET_NO": 999, "REV_AT_EPOCH": 11976, "BSTAR": 0, "MEAN_MOTION_DOT": -6.1e-07, "MEAN_MOTION_DDOT": 0}, "tle": {"line1": "1 35752U 09043A   25354.09019108 -.00000061  00000+0  00000+0 0  9991", "line2": "2 35752  56.0960  34.4932 0051646  81.7821 251.1308  2.00565329119760"}}, "geometry": {"type": "Point", "coordinates": [54.744544572874595, 27.31629715729389]}}, {"type": "Feature", "properties": {"norad_id": 36585, "name": "GPS BIIF-1  (PRN 25)", "group": "gps-ops", "lat": 21.206875332999235, "lon": 19.507060952128743, "alt_km": 20166.608075677508, "timestamp": "2025-12-22T04:03:39.428021+00:00", "meta": {"OBJECT_NAME": "GPS BIIF-1  (PRN 25)", "OBJECT_ID": "2010-022A", "EPOCH": "2025-12-21T16:53:11.559264", "MEAN_MOTION": 2.00553691, "ECCENTRICITY": 0.0126473, "INCLINATION": 54.2987, "RA_OF_ASC_NODE": 215.7124, "ARG_OF_PERICENTER": 65.1878, "MEAN_ANOMALY": 110.7719, "EPHEMERIS_TYPE": 0, "CLASSIFICATION_TYPE": "U", "NORAD_CAT_ID": 36585, "ELEMENT_SET_NO": 999, "REV_AT_EPOCH": 11403, "BSTAR": 0, "MEAN_MOTION_DOT": 7.5e-07, "MEAN_MOTION_DDOT": 0}, "tle": {"line1": "1 36585U 10022A   25355.70360601  .00000075  00000+0  00000+0 0  9995", "line2": "2 36585  54.2987 215.7124 0126473  65.1878 110.7719  2.00553691114030"}}, "geometry": {"type": "Point", "coordinates": [19.507060952128743, 21.206875332999235]}}, {"type": "Feature", "properties": {"norad_id": 38833, "name": "GPS BIIF-3  (PRN 24)", "group": "gps-ops", "lat": -49.03322823630813, "lon": 29.158859346971795, "alt_km": 20652.20553574084, "timestamp": "2025-12-22T04:03:39.428033+00:00", "meta": {"OBJECT_NAME": "GPS BIIF-3  (PRN 24)", "OBJECT_ID": "2012-053A", "EPOCH": "2025-12-21T07:50:41.138592", "MEAN_MOTION": 2.00565076, "ECCENTRICITY": 0.0176016, "INCLINATION": 53.5593, "RA_OF_ASC_NODE": 150.887, "ARG_OF_PERICENTER": 64.1244, "MEAN_ANOMALY": 297.6553, "EPHEMERIS_TYPE": 0, "CLASSIFICATION_TYPE": "U", "NORAD_CAT_ID": 38833, "ELEMENT_SET_NO": 999, "REV_AT_EPOCH": 9587, "BSTAR": 0, "MEAN_MOTION_DOT": 6e-07, "MEAN_MOTION_DDOT": 0}, "tle": {"line1": "1 38833U 12053A   25355.32686503  .00000060  00000+0  00000+0 0  9993", "line2": "2 38833  53.5593 150.8870 0176016  64.1244 297.6553  2.00565076 95875"}}, "geometry": {"type": "Point", "coordinates": [29.158859346971795, -49.03322823630813]}}, {"type": "Feature", "properties": {"norad_id": 39166, "name": "GPS BIIF-4  (PRN 27)", "group": "gps-ops", "lat": -11.302252176538316, "lon": -91.96796794566839, "alt_km": 20010.571438807874, "timestamp": "2025-12-22T04:03:39.428044+00:00", "meta": {"OBJECT_NAME": "GPS BIIF-4  (PRN 27)", "OBJECT_ID": "2013-023A", "EPOCH": "2025-12-21T04:35:02.241888", "MEAN_MOTION": 2.00564674, "ECCENTRICITY": 0.0138431, "INCLINATION": 54.6447, "RA_OF_ASC_NODE": 276.2247, "ARG_OF_PERICENTER": 48.7169, "MEAN_ANOMALY": 312.5052, "EPHEMERIS_TYPE": 0, "CLASSIFICATION_TYPE": "U", "NORAD_CAT_ID": 39166, "ELEMENT_SET_NO": 999, "REV_AT_EPOCH": 9231, "BSTAR": 0, "MEAN_MOTION_DOT": -1.7e-07, "MEAN_MOTION_DDOT": 0}, "tle": {"line1": "1 39166U 13023A   25355.19099817 -.00000017  00000+0  00000+0 0  9995", "line2": "2 39166  54.6447 276.2247 0138431  48.7169 312.5052  2.00564674 92319"}}, "geometry": {"type": "Point", "coordinates": [-91.96796794566839, -11.302252176538316]}}, {"type": "Feature", "properties": {"norad_id": 39533, "name": "GPS BIIF-5  (PRN 30)", "group": "gps-ops", "lat": -7.480956302727452, "lon": 151.00401994364543, "alt_km": 20303.41915773856, "timestamp": "2025-12-22T04:03:39.428056+00:00", "meta": {"OBJECT_NAME": "GPS BIIF-5  (PRN 30)", "OBJECT_ID": "2014-008A", "EPOCH": "2025-12-20T16:28:24.690432", "MEAN_MOTION": 2.00548724, "ECCENTRICITY": 0.0079574, "INCLINATION": 53.6246, "RA_OF_ASC_NODE": 156.6308, "ARG_OF_PERICENTER": 226.1122, "MEAN_ANOMALY": 133.2164, "EPHEMERIS_TYPE": 0, "CLASSIFICATION_TYPE": "U", "NORAD_CAT_ID": 39533, "ELEMENT_SET_NO": 999, "REV_AT_EPOCH": 8610, "BSTAR": 0, "MEAN_MOTION_DOT": 6.5e-07, "MEAN_MOTION_DDOT": 0}, "tle": {"line1": "1 39533U 14008A   25354.68639688  .00000065  00000+0  00000+0 0  9998", "line2": "2 39533  53.6246 156.6308 0079574 226.1122 133.2164  2.00548724 86105"}}, "geometry": {"type": "Point", "coordinates": [151.00401994364543, -7.480956302727452]}}, {"type": "Feature", "properties": {"norad_id": 39741, "name": "GPS BIIF-6  (PRN 06)", "group": "gps-ops", "lat": 28.08980806583068, "lon": 137.76445106200097, "alt_km": 20282.9665806846, "timestamp": "2025-12-22T04:03:39.428067+00:00", "meta": {"OBJECT_NAME": "GPS BIIF-6  (PRN 06)", "OBJECT_ID": "2014-026A", "EPOCH": "2025-12-18T23:24:45.525888", "MEAN_MOTION": 2.00561009, "ECCENTRICITY": 0.00393411, "INCLINATION": 56.5812, "RA_OF_ASC_NODE": 338.5339, "ARG_OF_PERICENTER": 319.0443, "MEAN_ANOMALY": 40.6665, "EPHEMERIS_TYPE": 0, "CLASSIFICATION_TYPE": "U", "NORAD_CAT_ID": 39741, "ELEMENT_SET_NO": 999, "REV_AT_EPOCH": 8492, "BSTAR": 0, "MEAN_MOTION_DOT": -8.1e-07, "MEAN_MOTION_DDOT": 0}, "tle": {"line1": "1 39741U 14026A   25352.97552692 -.00000081  00000+0  00000+0 0  9997", "line2": "2 39741  56.5812 338.5339 0039341 319.0443  40.6665  2.00561009 84924"}}, "geometry": {"type": "Point", "coordinates": [137.76445106200097, 28.08980806583068]}}, {"type": "Feature", "properties": {"norad_id": 40105, "name": "GPS BIIF-7  (PRN 09)", "group": "gps-ops", "lat": 54.698954026768995, "lon": 173.89813510197277, "alt_km": 20105.995730707025, "timestamp": "2025-12-22T04:03:39.428079+00:00", "meta": {"OBJECT_NAME": "GPS BIIF-7  (PRN 09)", "OBJECT_ID": "2014-045A", "EPOCH": "2025-12-21T13:19:50.036736", "MEAN_MOTION": 2.00573131, "ECCENTRICITY": 0.0032463, "INCLINATION": 55.2342, "RA_OF_ASC_NODE": 95.5472, "ARG_OF_PERICENTER": 120.1198, "MEAN_ANOMALY": 240.2018, "EPHEMERIS_TYPE": 0, "CLASSIFICATION_TYPE": "U", "NORAD_CAT_ID": 40105, "ELEMENT_SET_NO": 999, "REV_AT_EPOCH": 8251, "BSTAR": 0, "MEAN_MOTION_DOT": -7e-08, "MEAN_MOTION_DDOT": 0}, "tle": {"line1": "1 40105U 14045A   25355.55544024 -.00000007  00000+0  00000+0 0  9999", "line2": "2 40105  55.2342  95.5472 0032463 120.1198 240.2018  2.00573131 82510"}}, "geometry": {"type": "Point", "coordinates": [173.89813510197277, 54.698954026768995]}}, {"type": "Feature", "properties": {"norad_id": 40294, "name": "GPS BIIF-8  (PRN 03)", "group": "gps-ops", "lat": 6.324803688399834, "lon": -146.34856140228663, "alt_km": 20218.157025560155, "timestamp": "2025-12-22T04:03:39.428091+00:00", "meta": {"OBJECT_NAME": "GPS BIIF-8  (PRN 03)", "OBJECT_ID": "2014-068A", "EPOCH": "2025-12-21T10:24:33.832224", "MEAN_MOTION": 2.00565456, "ECCENTRICITY": 0.00608151, "INCLINATION": 56.8641, "RA_OF_ASC_NODE": 37.8098, "ARG_OF_PERICENTER": 69.0115, "MEAN_ANOMALY": 291.7086, "EPHEMERIS_TYPE": 0, "CLASSIFICATION_TYPE": "U", "NORAD_CAT_ID": 40294, "ELEMENT_SET_NO": 999, "REV_AT_EPOCH": 8164, "BSTAR": 0, "MEAN_MOTION_DOT": -5.2e-07, "MEAN_MOTION_DDOT": 0}, "tle": {"line1": "1 40294U 14068A   25355.43372491 -.00000052  00000+0  00000+0 0  9997", "line2": "2 40294  56.8641  37.8098 0060815  69.0115 291.7086  2.00565456 81643"}}, "geometry": {"type": "Point", "coordinates": [-146.34856140228663, 6.324803688399834]}}]}